name,address1,city,state,postal_code,country,phone_number
Sven Feil,969 Wolff Fields Apt. 433,West Elmira,CT,06501-4095,USA,536-047-02194
Danial Mertz,061 Daniel Trail Apt. 697,North Evaton,DE,72639-1718,USA,731-077-45377
Shaylee Stehr,391 Hilma Roads St.,Lake Dudley,GA,95344,USA,517-871-60502
Edgardo Durgan,98132 Ernser Key,West Ibrahimport,MA,03528-3800,USA,867-102-87382
Lucius Volkman,6062 Pollich Turnpike Ave.,Lake Camilleton,ME,11620-2475,USA,934-194-92415
Celestine Leffler,087 Herman Terrace ,Alanchester,FL,00091,USA,744-264-87721
Marietta O'Conner,105 Kreiger Valley Apt. 176,Gretchenberg,ND,17333,USA,552-187-86586
Wyman Crooks,2865 Cummings Port Ave.,Larsonberg,DE,65762-1986,USA,442-516-14155
Tyree Hegmann,364 Wilkinson Squares St.,New Ashashire,NM,33912-1069,USA,599-783-11247
Houston Waelchi,09098 Bernhard River,West Carlotta,AR,34248-3168,USA,540-359-75068
Tobin Luettgen,448 Isobel Tunnel St.,Benjaminstad,MA,71075,USA,656-316-75097
Gaston Conroy,399 Virginia Common Suite 169,North Cleorahaven,IL,37394,USA,020-955-07665
Rodolfo Bosco,284 Hirthe Cove St.,Jacobstown,FM,31726-3158,USA,285-945-52063
Sofia Becker,6074 Daugherty Land Ave.,Mathewview,CA,77809-7433,USA,624-557-90717
Flavie Grant,329 Kris Gateway St.,Creminburgh,NY,74824,USA,895-653-99207
William Boyer,5881 Lakin Causeway Suite 370,Torphymouth,WV,00343-4303,USA,614-377-17989
Cleveland Purdy,986 Darrell Crossing St.,Antoniettashire,AR,28840-6512,USA,961-502-22260
Ryder Stanton,6726 Bernita Causeway ,East Bohaven,MO,35580,USA,361-351-11226
Nikolas Stiedemann,85616 Farrell Drives,Lake Helene,RI,93514,USA,252-645-61812
Harmon Konopelski,053 Buck Isle Suite 566,New Alessandroside,PR,71720-6603,USA,458-180-86557
Clarabelle Lowe,124 Wendy Parkway St.,East Rebecca,AK,02326,USA,007-820-64524
Dorothea Hudson,6528 Maryse Knoll ,Herzoghaven,DC,52076,USA,194-962-40464
Lina Reichert,4005 Ramona Squares Ave.,Rosemariemouth,FM,73676,USA,045-050-86102
Bobbie Lowe,93489 Becker Passage,Lake Annabellechester,IA,71859,USA,114-370-96586
Marilie Botsford,41599 Mitchell Points,Irvingbury,NV,82922,USA,365-558-12102
Louisa Stokes,9458 Clark Mountain Ave.,Jessberg,CO,80329,USA,360-786-29799
Price Lueilwitz,3320 Audrey Extensions ,Lake John,WY,75013-0298,USA,680-237-23012
Adolph Howe,160 Hammes Parkways St.,West Rowena,GA,49389,USA,501-672-03035
Ross Johnson,705 Satterfield Fall St.,Lake Fatima,VA,08706,USA,965-607-61659
Jeffery Ruecker,58071 Rae Port,Salliemouth,GU,07765-1800,USA,068-324-29859
Alyson Welch,248 Hettinger Ridges ,New Terrill,AL,65478-1259,USA,841-091-58038
Barton Runolfsson,460 Kertzmann Squares ,Edmondland,OH,04972,USA,058-611-00187
Jayda Price,484 Billy Junctions St.,Boyleshire,ND,58454-9474,USA,980-134-99771
Asa Moen,2684 Hudson Squares Apt. 305,Port Jermaine,AE,37157-9690,USA,179-068-93565
Raymond Bergnaum,85650 Brennan Island,Thompsonview,NC,58736-7759,USA,790-379-39890
Lucinda Reichert,479 Skiles Manor St.,New Carlosbury,FL,51301,USA,521-966-37451
Freda Wilkinson,0584 Lowe Island Apt. 637,North Heath,MS,31338,USA,430-166-22792
Donna Hoeger,793 Wilderman Stream ,New Gaston,NV,21094,USA,851-177-79885
Rhoda Franecki,2787 Carmen Route Apt. 293,Lake Krystal,LA,61659,USA,550-826-18539
Gregg O'Keefe,1234 Wiegand Trail Suite 296,Abernathyview,NJ,12001,USA,454-445-18063
Jaden Nitzsche,0433 Mina Valley Suite 370,Uptonland,ID,10769,USA,076-055-29251
Emmett Stroman,70230 Mann Extensions,Kautzerborough,LA,97708-6522,USA,156-153-59230
Nigel Hettinger,5457 Simone Via Ave.,New Hendersonville,VA,27334-4231,USA,399-844-92290
Ericka Christiansen,9870 Schmidt Meadows Suite 585,Dustymouth,AL,22563,USA,816-051-79342
Delia Windler,097 Neha Falls Suite 786,Boganmouth,AP,54049-8856,USA,887-341-47776
Estel Nolan,189 Swaniawski Lake St.,West Marielafort,AL,04834-9221,USA,506-219-43950
Davonte Schmidt,8226 Rosenbaum Pines Apt. 962,Destinville,FL,91888,USA,697-142-44464
Breanna Cronin,104 Fidel Village St.,Rathtown,WY,91914-7609,USA,007-402-21509
Ubaldo Okuneva,916 Sanford Gateway St.,East Gilbertview,MS,11402,USA,790-947-11072
Percival Nienow,687 Deckow Street Apt. 294,Schulistmouth,KY,24634,USA,309-010-60986
Zola Cummerata,0061 Runte Shoals Suite 406,Lindton,CT,43209-4405,USA,891-661-98015
Mabelle Okuneva,8384 Fausto Streets ,Lake Isabellaside,MT,80612-3182,USA,779-495-70087
Katlyn Brakus,626 Bauch Cove ,North Mallie,GU,13132,USA,382-366-98811
Troy Roob,4742 Johns Landing Ave.,Hoegermouth,AR,27005,USA,966-952-19780
Donato Legros,645 Estevan Shoal St.,Durganburgh,NM,25009-5341,USA,670-856-79287
Kristofer Ward,852 Micaela Motorway St.,Mittieport,CO,45645,USA,249-159-82216
Enrique Carter,7318 Beer Knolls ,South Taylorville,NM,24928-7161,USA,898-437-15904
Braden Homenick,22988 Koss Roads,Ellsworthport,WI,84763,USA,036-724-07998
Marcelle Feest,87069 Pfeffer Ports,Darionborough,FL,55864,USA,041-935-62496
Garret Emmerich,5150 Caterina Circles Apt. 946,Bayerland,DE,43394-5930,USA,171-984-06924
Wilhelm Will,172 Mazie Vista St.,West Rosaliaburgh,NE,38449-3314,USA,257-276-01379
Monserrat Upton,8765 Bruen Avenue Ave.,North Scottieport,OH,25973,USA,039-450-54938
Frankie Stoltenberg,2312 Spinka Island Apt. 679,South Aliciaside,CA,05212,USA,386-563-24431
Adrienne Blanda,7860 Gaylord Drive Apt. 540,Nathanchester,NV,43911-4570,USA,604-968-75983
Rocio Johnston,68243 Anahi Land,Willmsport,AP,18554,USA,764-232-10226
Chasity Marks,130 Florencio Extension Suite 347,Martintown,AR,63027,USA,217-766-42826
Theodore Auer,399 Braulio Valleys St.,Jeremieburgh,CO,07997-5583,USA,098-937-24356
Rebekah Rodriguez,944 McKenzie Hollow St.,New Odie,WI,29324-9055,USA,238-353-40976
Charlie Hermann,502 Crooks Lakes St.,North Gideonside,SC,41181,USA,130-568-72210
Meredith Donnelly,80439 Scotty Spurs,Port Adela,MP,30664-2084,USA,570-766-77626
Shawn Walsh,05764 Genesis Glen,South Gia,AZ,68503-9919,USA,343-890-63705
Eli Weber,8612 Harris Isle Suite 476,Treutelton,MA,98696,USA,220-714-65268
Jamison Donnelly,3397 Smith Springs Ave.,Port Raeganchester,HI,25070-4446,USA,299-558-44587
Ernestina Rohan,669 Fahey Cliff ,Kihnhaven,AA,35244,USA,633-922-79788
Mya Eichmann,474 Eryn Pine Apt. 269,Schillerview,NJ,18022-7040,USA,157-222-80182
Ted Bruen,007 Noah Square Apt. 924,North America,AS,06644-9233,USA,994-184-49828
Rhea Hickle,1430 Waelchi Plain Apt. 913,Morissetteland,NH,07568-1863,USA,699-297-33727
Samara Morar,902 Douglas Path St.,West Dejuanland,MN,28486,USA,631-819-68877
Sydnie Braun,0131 Aletha Forges Apt. 352,West Verda,NV,56486,USA,831-123-80694
Myles Upton,65438 Huel Spurs,West Tamarahaven,ID,55875-5355,USA,475-117-68050
Westley Baumbach,452 Greenfelder Lakes Suite 121,Christianfurt,NE,65008-7702,USA,127-314-00756
Graham Boyle,343 Kiel Glens Suite 165,Mannview,NV,36349-9518,USA,366-985-53452
Brown Volkman,636 Reese Spurs ,North Coleton,CO,37536,USA,674-503-15846
Rhiannon Yundt,6250 Buck Lane Apt. 408,Colliermouth,OK,04850,USA,476-269-87710
Dayna Hessel,4633 Bartholome Ports ,West Sigridton,VT,70570-0516,USA,980-331-47927
Franz Rutherford,508 Jerrold Street Apt. 432,Jordiview,PA,82240,USA,141-891-47953
Maryse Hammes,005 Bode Forges St.,Murrayburgh,GU,40398-3101,USA,272-910-52240
Ardith Zulauf,57993 Colin Spurs,Port Petrastad,WV,14460,USA,935-155-20178
Adan Walker,90258 Mertie Wells,East Jefferey,MS,63218,USA,163-195-29310
Cleora Rutherford,1918 Nicholas Underpass Suite 323,Lake Nathanial,KY,84415,USA,441-929-26616
Nova Lakin,2767 Schmeler Ports Ave.,North Linatown,WA,57760,USA,944-695-97804
Jacynthe Homenick,4010 Elisabeth Port Ave.,South Treva,IN,61330,USA,860-189-17251
Clemmie Murazik,066 Elise Circle ,Gislasonburgh,IN,81385,USA,657-927-95450
Jakayla Ernser,3380 Johnathan Burg Apt. 176,Joshuahberg,MH,65069-4418,USA,191-152-03625
Theo Hessel,7044 Bonnie Port Ave.,Kendraton,KS,99741,USA,692-679-35857
Jalyn Paucek,429 Arvel Well Suite 781,Lake Kenya,SC,37307-7594,USA,420-579-52546
Creola Walsh,42329 Strosin Gateway,West Jermain,NE,75360,USA,441-946-00421
Boris Moore,596 Jillian Lake St.,Satterfieldstad,OR,29898-1979,USA,929-528-11507
Christy Morissette,729 Haven Park St.,Matildachester,DC,92731,USA,406-890-16850
Alden Schmidt,281 Dangelo Inlet ,Wittinghaven,VI,12792,USA,099-092-39545
